STARLINK-2022           
1 47643U 21012Z   24012.94442707  .00000881  00000+0  78046-4 0  9991
2 47643  53.0561 343.4582 0001629  95.3525 264.7650 15.06403432161682
